[Satellite]
VERSION=1.1
NAME=ORBCOMM FM09 [+]
NICKNAME=ORBCOMM FM09 [+]
TLE1=1 25116U 97084E   17186.25502862  .00000034  00000-0  57314-4 0  9997
TLE2=2 25116  45.0169 142.4359 0007834 343.6395  16.4200 14.38570666 22884
